[
    {
        "Altitude(m)": 553593.2406918514,
        "Argument of Periapsis(deg)": 0.006622991110713501,
        "Eccentricity": 0.0,
        "Inclination(deg)": 53.0,
        "Latitude(deg)": 16.506006749341637,
        "Longitude(deg)": 46.396071496432604,
        "Mean Anomaly(deg)": -200.81750713242243,
        "RAAN(deg)": 339.99014336852804,
        "Satellite Name": "Starlink Shell 1 1505",
        "Satellite Number": 1505,
        "Semi-Major Axis(m)": 6931778.249405717,
        "Time(s)": 190
    },
    {
        "Altitude(m)": 553571.0664018182,
        "Argument of Periapsis(deg)": 0.0069715695902247375,
        "Eccentricity": 0.0,
        "Inclination(deg)": 53.0,
        "Latitude(deg)": 16.014450312239976,
        "Longitude(deg)": 46.76340733857543,
        "Mean Anomaly(deg)": -200.1906759288657,
        "RAAN(deg)": 339.9896245984506,
        "Satellite Name": "Starlink Shell 1 1505",
        "Satellite Number": 1505,
        "Semi-Major Axis(m)": 6931778.249405717,
        "Time(s)": 200
    },
    {
        "Altitude(m)": 553551.2719743195,
        "Argument of Periapsis(deg)": 0.007320148069735974,
        "Eccentricity": 0.0,
        "Inclination(deg)": 53.0,
        "Latitude(deg)": 15.52210118706217,
        "Longitude(deg)": 47.12874570692791,
        "Mean Anomaly(deg)": -199.563844725309,
        "RAAN(deg)": 339.9891058283731,
        "Satellite Name": "Starlink Shell 1 1505",
        "Satellite Number": 1505,
        "Semi-Major Axis(m)": 6931778.249405717,
        "Time(s)": 210
    },
    {
        "Altitude(m)": 553533.8892776791,
        "Argument of Periapsis(deg)": 0.007668726549247212,
        "Eccentricity": 0.0,
        "Inclination(deg)": 53.0,
        "Latitude(deg)": 15.028988670574149,
        "Longitude(deg)": 47.492157110318075,
        "Mean Anomaly(deg)": -198.9370135217523,
        "RAAN(deg)": 339.9885870582956,
        "Satellite Name": "Starlink Shell 1 1505",
        "Satellite Number": 1505,
        "Semi-Major Axis(m)": 6931778.249405717,
        "Time(s)": 220
    },
    {
        "Altitude(m)": 553518.9491016337,
        "Argument of Periapsis(deg)": 0.00801730502875845,
        "Eccentricity": 0.0,
        "Inclination(deg)": 53.0,
        "Latitude(deg)": 14.535141635004246,
        "Longitude(deg)": 47.85371124134499,
        "Mean Anomaly(deg)": -198.3101823181955,
        "RAAN(deg)": 339.98806828821813,
        "Satellite Name": "Starlink Shell 1 1505",
        "Satellite Number": 1505,
        "Semi-Major Axis(m)": 6931778.249405717,
        "Time(s)": 230
    },
    {
        "Altitude(m)": 553506.4811393955,
        "Argument of Periapsis(deg)": 0.008365883508269684,
        "Eccentricity": 0.0,
        "Inclination(deg)": 53.0,
        "Latitude(deg)": 14.040588545227513,
        "Longitude(deg)": 48.2134775076089,
        "Mean Anomaly(deg)": -197.6833511146388,
        "RAAN(deg)": 339.9875495181407,
        "Satellite Name": "Starlink Shell 1 1505",
        "Satellite Number": 1505,
        "Semi-Major Axis(m)": 6931778.249405717,
        "Time(s)": 240
    },
    {
        "Altitude(m)": 553496.51397023,
        "Argument of Periapsis(deg)": 0.008714461987780921,
        "Eccentricity": 0.0,
        "Inclination(deg)": 53.0,
        "Latitude(deg)": 13.545357475586206,
        "Longitude(deg)": 48.571524050105744,
        "Mean Anomaly(deg)": -197.05651991108218,
        "RAAN(deg)": 339.9870307480632,
        "Satellite Name": "Starlink Shell 1 1505",
        "Satellite Number": 1505,
        "Semi-Major Axis(m)": 6931778.249405717,
        "Time(s)": 250
    },
    {
        "Altitude(m)": 553489.0750425799,
        "Argument of Periapsis(deg)": 0.009063040467292158,
        "Eccentricity": 0.0,
        "Inclination(deg)": 53.0,
        "Latitude(deg)": 13.049476126365317,
        "Longitude(deg)": 48.927918274509985,
        "Mean Anomaly(deg)": -196.42968870752546,
        "RAAN(deg)": 339.98651197798574,
        "Satellite Name": "Starlink Shell 1 1505",
        "Satellite Number": 1505,
        "Semi-Major Axis(m)": 6931778.249405717,
        "Time(s)": 260
    },
    {
        "Altitude(m)": 553484.1906577126,
        "Argument of Periapsis(deg)": 0.009411618946803396,
        "Eccentricity": 0.0,
        "Inclination(deg)": 53.0,
        "Latitude(deg)": 12.552971839931812,
        "Longitude(deg)": 49.28272738245166,
        "Mean Anomaly(deg)": -195.80285750396862,
        "RAAN(deg)": 339.9859932079082,
        "Satellite Name": "Starlink Shell 1 1505",
        "Satellite Number": 1505,
        "Semi-Major Axis(m)": 6931778.249405717,
        "Time(s)": 270
    },
    {
        "Altitude(m)": 553481.8859539769,
        "Argument of Periapsis(deg)": 0.009760197426314633,
        "Eccentricity": 0.0,
        "Inclination(deg)": 53.0,
        "Latitude(deg)": 12.055871616548925,
        "Longitude(deg)": 49.636017389897695,
        "Mean Anomaly(deg)": -195.176026300412,
        "RAAN(deg)": 339.98547443783076,
        "Satellite Name": "Starlink Shell 1 1505",
        "Satellite Number": 1505,
        "Semi-Major Axis(m)": 6931778.249405717,
        "Time(s)": 280
    },
    {
        "Altitude(m)": 553482.1848915697,
        "Argument of Periapsis(deg)": 0.01010877590582587,
        "Eccentricity": 0.0,
        "Inclination(deg)": 53.0,
        "Latitude(deg)": 11.558202129881503,
        "Longitude(deg)": 49.987853658368614,
        "Mean Anomaly(deg)": -194.54919509685527,
        "RAAN(deg)": 339.98495566775335,
        "Satellite Name": "Starlink Shell 1 1505",
        "Satellite Number": 1505,
        "Semi-Major Axis(m)": 6931778.249405717,
        "Time(s)": 290
    },
    {
        "Altitude(m)": 553485.1102379084,
        "Argument of Periapsis(deg)": 0.010457354385337106,
        "Eccentricity": 0.0,
        "Inclination(deg)": 53.0,
        "Latitude(deg)": 11.059989742204428,
        "Longitude(deg)": 50.338301426102994,
        "Mean Anomaly(deg)": -193.92236389329858,
        "RAAN(deg)": 339.98443689767583,
        "Satellite Name": "Starlink Shell 1 1505",
        "Satellite Number": 1505,
        "Semi-Major Axis(m)": 6931778.249405717,
        "Time(s)": 300
    },
    {
        "Altitude(m)": 553490.6835535751,
        "Argument of Periapsis(deg)": 0.010805932864848343,
        "Eccentricity": 0.0,
        "Inclination(deg)": 53.0,
        "Latitude(deg)": 10.56126051932249,
        "Longitude(deg)": 50.687424826287845,
        "Mean Anomaly(deg)": -193.2955326897418,
        "RAAN(deg)": 339.9839181275984,
        "Satellite Name": "Starlink Shell 1 1505",
        "Satellite Number": 1505,
        "Semi-Major Axis(m)": 6931778.249405717,
        "Time(s)": 310
    },
    {
        "Altitude(m)": 553498.9251788765,
        "Argument of Periapsis(deg)": 0.01115451134435958,
        "Eccentricity": 0.0,
        "Inclination(deg)": 53.0,
        "Latitude(deg)": 10.06204024522058,
        "Longitude(deg)": 51.03528741808974,
        "Mean Anomaly(deg)": -192.66870148618517,
        "RAAN(deg)": 339.9833993575209,
        "Satellite Name": "Starlink Shell 1 1505",
        "Satellite Number": 1505,
        "Semi-Major Axis(m)": 6931778.249405717,
        "Time(s)": 320
    },
    {
        "Altitude(m)": 553509.8542209498,
        "Argument of Periapsis(deg)": 0.011503089823870818,
        "Eccentricity": 0.0,
        "Inclination(deg)": 53.0,
        "Latitude(deg)": 9.562354436452425,
        "Longitude(deg)": 51.38195271760737,
        "Mean Anomaly(deg)": -192.0418702826284,
        "RAAN(deg)": 339.98288058744345,
        "Satellite Name": "Starlink Shell 1 1505",
        "Satellite Number": 1505,
        "Semi-Major Axis(m)": 6931778.249405717,
        "Time(s)": 330
    },
    {
        "Altitude(m)": 553523.4885415317,
        "Argument of Periapsis(deg)": 0.011851668303382053,
        "Eccentricity": 0.0,
        "Inclination(deg)": 53.0,
        "Latitude(deg)": 9.062228356280361,
        "Longitude(deg)": 51.72748321586652,
        "Mean Anomaly(deg)": -191.41503907907173,
        "RAAN(deg)": 339.9823618173659,
        "Satellite Name": "Starlink Shell 1 1505",
        "Satellite Number": 1505,
        "Semi-Major Axis(m)": 6931778.249405717,
        "Time(s)": 340
    },
    {
        "Altitude(m)": 553539.8447453062,
        "Argument of Periapsis(deg)": 0.012200246782893292,
        "Eccentricity": 0.0,
        "Inclination(deg)": 53.0,
        "Latitude(deg)": 8.56168702858045,
        "Longitude(deg)": 52.071940909599086,
        "Mean Anomaly(deg)": -190.788207875515,
        "RAAN(deg)": 339.98184304728846,
        "Satellite Name": "Starlink Shell 1 1505",
        "Satellite Number": 1505,
        "Semi-Major Axis(m)": 6931778.249405717,
        "Time(s)": 350
    },
    {
        "Altitude(m)": 553558.9381688841,
        "Argument of Periapsis(deg)": 0.012548825262404526,
        "Eccentricity": 0.0,
        "Inclination(deg)": 53.0,
        "Latitude(deg)": 8.060755251525231,
        "Longitude(deg)": 52.4153878319299,
        "Mean Anomaly(deg)": -190.16137667195824,
        "RAAN(deg)": 339.981324277211,
        "Satellite Name": "Starlink Shell 1 1505",
        "Satellite Number": 1505,
        "Semi-Major Axis(m)": 6931778.249405717,
        "Time(s)": 360
    },
    {
        "Altitude(m)": 553580.7828704007,
        "Argument of Periapsis(deg)": 0.012897403741915765,
        "Eccentricity": 0.0,
        "Inclination(deg)": 53.0,
        "Latitude(deg)": 7.559457611052647,
        "Longitude(deg)": 52.75788507009651,
        "Mean Anomaly(deg)": -189.53454546840152,
        "RAAN(deg)": 339.98080550713354,
        "Satellite Name": "Starlink Shell 1 1505",
        "Satellite Number": 1505,
        "Semi-Major Axis(m)": 6931778.249405717,
        "Time(s)": 370
    }
]